STARLINK-1434           
1 45712U 20035BH  26068.24137979  .00054112  00000+0  20295-2 0  9995
2 45712  53.0547  22.1128 0005343  88.0400 272.1210 15.26724568319325
STARLINK-35643          
1 66456U 25262A   26068.04194972  .00053623  00000+0  19412-2 0  9999
2 66456  43.0010 300.1522 0001109 292.2355  67.8379 15.27628244 18807
